     2.10           GLONASS NAV DATA                        RINEX VERSION / TYPE
Spider V7.7.2.9082                      2022 05 07 00:21    PGM / RUN BY / DATE 
  2022     5     6   -9.313225746155D-10                    CORR TO SYSTEM TIME 
    18                                                      LEAP SECONDS        
                                                            END OF HEADER       
10 22 05 06 10 45  0.0-8.214265108109D-05-0.000000000000D+00 3.780000000000D+04
    1.043997363281D+04 2.477140426636D+00 0.000000000000D+00 0.000000000000D+00
   -5.627380859375D+03 1.852218627930D+00 1.862645149231D-09-7.000000000000D+00
    2.258214208984D+04-6.767616271973D-01-9.313225746155D-10 0.000000000000D+00
20 22 05 06 10 45  0.0-7.003825157881D-05-9.094947017729D-13 3.780000000000D+04
    2.336093750000D+04-1.304447174072D+00-0.000000000000D+00 0.000000000000D+00
   -3.754143554688D+03 2.109069824219D-01 1.862645149231D-09 2.000000000000D+00
    9.472417480469D+03 3.305489540100D+00-0.000000000000D+00 0.000000000000D+00
 2 22 05 06 10 45  0.0 5.175555124879D-04 9.094947017729D-13 3.780000000000D+04
   -1.125653759766D+04 5.024452209473D-01 9.313225746155D-10 0.000000000000D+00
    2.522248535156D+03-3.068169593811D+00 1.862645149231D-09-4.000000000000D+00
    2.280471435547D+04 5.831403732300D-01-9.313225746155D-10 0.000000000000D+00
 3 22 05 06 10 45  0.0 5.618669092655D-05 9.094947017729D-13 3.780000000000D+04
   -9.398826171875D+03 4.052476882935D-01 1.862645149231D-09 0.000000000000D+00
    1.943112597656D+04-1.823020935059D+00 1.862645149231D-09 5.000000000000D+00
    1.368507568359D+04 2.872380256653D+00 0.000000000000D+00 0.000000000000D+00
11 22 05 06 10 45  0.0 3.966502845287D-05-9.094947017729D-13 3.906000000000D+04
   -6.307692382813D+03 1.988260269165D+00 0.000000000000D+00 0.000000000000D+00
   -1.601945751953D+04 1.642137527466D+00 0.000000000000D+00 0.000000000000D+00
    1.883693066406D+04 2.061861038208D+00-2.793967723846D-09 0.000000000000D+00
 9 22 05 06 11 15  0.0 5.359575152397D-05 1.818989403546D-12 3.960000000000D+04
    2.260498437500D+04 1.084128379822D+00 0.000000000000D+00 0.000000000000D+00
    7.884861328125D+03 5.041894912720D-01 1.862645149231D-09-2.000000000000D+00
    8.711638183594D+03-3.282258987427D+00 9.313225746155D-10 0.000000000000D+00
19 22 05 06 11 15  0.0-1.880135387182D-04-9.094947017729D-13 3.960000000000D+04
    4.101202636719D+03-2.847711563110D+00 1.862645149231D-09 0.000000000000D+00
    9.509455566406D+03 1.456679344177D+00 2.793967723846D-09 3.000000000000D+00
    2.330553515625D+04-9.304141998291D-02-0.000000000000D+00 0.000000000000D+00
18 22 05 06 11 15  0.0 1.159198582172D-04 9.094947017729D-13 3.960000000000D+04
   -1.102832910156D+04-2.031798362732D+00 1.862645149231D-09 0.000000000000D+00
    1.493217236328D+04 1.288000106812D+00 1.862645149231D-09-3.000000000000D+00
    1.753293652344D+04-2.370907783508D+00-0.000000000000D+00 0.000000000000D+00
10 22 05 06 11 15  0.0-8.214358240366D-05-0.000000000000D+00 3.960000000000D+04
    1.493628710938D+04 2.470905303955D+00 0.000000000000D+00 0.000000000000D+00
   -2.744876464844D+03 1.334614753723D+00 1.862645149231D-09-7.000000000000D+00
    2.050712939453D+04-1.613658905029D+00-0.000000000000D+00 0.000000000000D+00
20 22 05 06 11 15  0.0-7.004011422396D-05-9.094947017729D-13 3.960000000000D+04
    2.041998974609D+04-1.922715187073D+00 0.000000000000D+00 0.000000000000D+00
   -2.904937500000D+03 7.549896240234D-01 1.862645149231D-09 2.000000000000D+00
    1.497813671875D+04 2.772207260132D+00-0.000000000000D+00 0.000000000000D+00
11 22 05 06 11 15  0.0 3.966316580772D-05-9.094947017729D-13 3.960000000000D+04
   -2.192863281250D+03 2.555807113647D+00 0.000000000000D+00 0.000000000000D+00
   -1.312660449219D+04 1.531004905701D+00 9.313225746155D-10 0.000000000000D+00
    2.177320214844D+04 1.179503440857D+00-1.862645149231D-09 0.000000000000D+00
 2 22 05 06 11 15  0.0 5.175583064556D-04 9.094947017729D-13 3.960000000000D+04
   -1.075665917969D+04 4.747581481934D-02 9.313225746155D-10 0.000000000000D+00
   -3.103828613281D+03-3.131650924683D+00 9.313225746155D-10-4.000000000000D+00
    2.296415185547D+04-4.072952270508D-01-1.862645149231D-09 0.000000000000D+00
 3 22 05 06 11 15  0.0 5.618855357170D-05 9.094947017729D-13 3.960000000000D+04
   -8.880053710938D+03 1.391572952271D-01 1.862645149231D-09 0.000000000000D+00
    1.552316748047D+04-2.485614776611D+00 1.862645149231D-09 5.000000000000D+00
    1.826304589844D+04 2.181481361389D+00-0.000000000000D+00 0.000000000000D+00
 4 22 05 06 11 15  0.0 1.401938498020D-04 1.818989403546D-12 4.056000000000D+04
   -2.116195312500D+03 1.920518875122D-01 1.862645149231D-09 0.000000000000D+00
    2.518083251953D+04-4.769344329834D-01 1.862645149231D-09 6.000000000000D+00
    3.542444335938D+03 3.537672996521D+00 1.862645149231D-09 0.000000000000D+00
 9 22 05 06 11 45  0.0 5.359854549170D-05 1.818989403546D-12 4.140000000000D+04
    2.393003027344D+04 3.598756790161D-01 9.313225746155D-10 0.000000000000D+00
    8.342973144531D+03 3.397464752197D-02 1.862645149231D-09-2.000000000000D+00
    2.542055664063D+03-3.528162002563D+00 1.862645149231D-09 0.000000000000D+00
19 22 05 06 11 45  0.0-1.880163326859D-04-9.094947017729D-13 4.140000000000D+04
   -7.240957031250D+02-2.471867561340D+00 1.862645149231D-09 0.000000000000D+00
    1.246325585938D+04 1.792215347290D+00 1.862645149231D-09 3.000000000000D+00
    2.223892968750D+04-1.084372520447D+00-0.000000000000D+00 0.000000000000D+00
18 22 05 06 11 45  0.0 1.159226521850D-04 9.094947017729D-13 4.140000000000D+04
   -1.401786523438D+04-1.277722358704D+00 1.862645149231D-09 0.000000000000D+00
    1.719915234375D+04 1.185119628906D+00 9.313225746155D-10-3.000000000000D+00
    1.264464355469D+04-3.025338172913D+00-0.000000000000D+00 0.000000000000D+00
10 22 05 06 11 45  0.0-8.214358240366D-05-0.000000000000D+00 4.140000000000D+04
    1.915978173828D+04 2.173804283142D+00 9.313225746155D-10 0.000000000000D+00
   -8.473422851563D+02 7.761421203613D-01 1.862645149231D-09-7.000000000000D+00
    1.684853564453D+04-2.424950599670D+00 0.000000000000D+00 0.000000000000D+00
11 22 05 06 11 45  0.0 3.966223448515D-05-9.094947017729D-13 4.140000000000D+04
    2.765207031250D+03 2.911047935486D+00 0.000000000000D+00 0.000000000000D+00
   -1.063719726563D+04 1.205454826355D+00 9.313225746155D-10 0.000000000000D+00
    2.302830761719D+04 2.059879302979D-01-1.862645149231D-09 0.000000000000D+00
20 22 05 06 11 45  0.0-7.004197686911D-05-9.094947017729D-13 4.140000000000D+04
    1.660317382813D+04-2.269133567810D+00 9.313225746155D-10 0.000000000000D+00
   -9.869799804688D+02 1.380462646484D+00 2.793967723846D-09 2.000000000000D+00
    1.932341894531D+04 2.024570465088D+00-0.000000000000D+00 0.000000000000D+00
 2 22 05 06 11 45  0.0 5.175620317459D-04 9.094947017729D-13 4.140000000000D+04
   -1.107273535156D+04-3.861436843872D-01 0.000000000000D+00 0.000000000000D+00
   -8.567066406250D+03-2.888978958130D+00 0.000000000000D+00-4.000000000000D+00
    2.135659814453D+04-1.367550849915D+00-2.793967723846D-09 0.000000000000D+00
 3 22 05 06 11 45  0.0 5.619134753942D-05 9.094947017729D-13 4.140000000000D+04
   -8.989464843750D+03-2.786664962769D-01 1.862645149231D-09 0.000000000000D+00
    1.062762304688D+04-2.908242225647D+00 9.313225746155D-10 5.000000000000D+00
    2.143769775391D+04 1.323152542114D+00-9.313225746155D-10 0.000000000000D+00
 4 22 05 06 11 45  0.0 1.401975750923D-04 1.818989403546D-12 4.140000000000D+04
   -1.891504882813D+03 1.878166198730D-02 1.862645149231D-09 0.000000000000D+00
    2.353712597656D+04-1.332406044006D+00 1.862645149231D-09 6.000000000000D+00
    9.691307128906D+03 3.250138282776D+00 9.313225746155D-10 0.000000000000D+00
21 22 05 06 11 45  0.0-2.990318462253D-04-2.728484105319D-12 4.191000000000D+04
    2.112898681641D+04-4.039821624756D-01-0.000000000000D+00 0.000000000000D+00
   -1.411230078125D+04-7.600784301758D-04 9.313225746155D-10 4.000000000000D+00
    2.371293945313D+03 3.584939956665D+00-0.000000000000D+00 0.000000000000D+00
 9 22 05 06 12 15  0.0 5.360133945942D-05 1.818989403546D-12 4.320000000000D+04
    2.382826953125D+04-4.840946197510D-01 9.313225746155D-10 0.000000000000D+00
    8.130805175781D+03-2.314977645874D-01 9.313225746155D-10-2.000000000000D+00
   -3.824925781250D+03-3.500095367432D+00 1.862645149231D-09 0.000000000000D+00
19 22 05 06 12 15  0.0-1.880191266537D-04-9.094947017729D-13 4.320000000000D+04
   -4.672445312500D+03-1.888585090637D+00 1.862645149231D-09 0.000000000000D+00
    1.581948144531D+04 1.892451286316D+00 9.313225746155D-10 3.000000000000D+00
    1.945226318359D+04-1.991806983948D+00-0.000000000000D+00 0.000000000000D+00
10 22 05 06 12 15  0.0-8.214358240366D-05-0.000000000000D+00 4.320000000000D+04
    2.259961230469D+04 1.607531547546D+00 9.313225746155D-10 0.000000000000D+00
    8.977050781250D+01 2.846975326538D-01 1.862645149231D-09-7.000000000000D+00
    1.189026171875D+04-3.048476219177D+00 9.313225746155D-10 0.000000000000D+00
11 22 05 06 12 15  0.0 3.966130316257D-05-9.094947017729D-13 4.320000000000D+04
    8.118467773438D+03 2.986973762512D+00 9.313225746155D-10 0.000000000000D+00
   -8.865241699219D+03 7.501258850098D-01 1.862645149231D-09 0.000000000000D+00
    2.250505371094D+04-7.836580276489D-01-9.313225746155D-10 0.000000000000D+00
20 22 05 06 12 15  0.0-7.004290819168D-05-0.000000000000D+00 4.320000000000D+04
    1.243166503906D+04-2.316257476807D+00 1.862645149231D-09 0.000000000000D+00
    2.045563476563D+03 1.974035263062D+00 2.793967723846D-09 2.000000000000D+00
    2.217269921875D+04 1.120845794678D+00-0.000000000000D+00 0.000000000000D+00
